STARLINK-1641
1 16174C 20057BK  21326.13790589  .00003555  00000-0  23817-3 0  3268
2 16174  53.0520 158.1192 0002163  77.5620 303.0530 15.06399288    11
